ENTRYSAT                
1 44429U 98067QP  20034.09236826  .00009046  00000-0  13810-3 0  9993
2 44429  51.6403 291.9321 0003120 167.2495 192.8575 15.55235691 33433
VCC C                   
1 44430U 98067QQ  20034.65175519  .00012472  00000-0  18433-3 0  9991
2 44430  51.6406 288.9238 0003132 179.0428 181.0569 15.55726545 32357
VCC B                   
1 44431U 98067QR  20034.12502513  .00008559  00000-0  13334-3 0  9998
2 44431  51.6409 292.1536 0003299 177.2170 182.8840 15.54755949 33370
DUCHIFAT-3              
1 44854U 19089C   20034.74173608  .00000366  00000-0  36106-4 0  9992
2 44854  36.9660 174.4079 0007850  40.3236 319.8215 14.98961287  8076
